LIZZIESAT-2 (LS-2)      
1 62383U 24247G   26068.49140277  .00009388  00000+0  34517-3 0  9997
2 62383  44.9909 117.0823 0004092 327.5136  32.5495 15.28222796 67716
STARLINK-33934          
1 64187U 25113T   26068.36005959  .00021872  00000+0  74842-3 0  9994
2 64187  53.1586  92.7337 0001194  82.1972 277.9164 15.30199735 44974
